format  = 'OEF2.0'       ! file format
rectype = 'ML'           ! record type (1L/ML)
refsys  = ECLM J2000     ! default reference system
END_OF_HEADER
2022OB5
! Keplerian elements: a, e, i, long. node, arg. peric., mean anomaly
 KEP   1.0034630497303025E+00  5.5572778728265097E-02   2.0877951248265 300.2025534594475  99.4880289155792  1.4654786035215105E+01
 MJD     61000.000000000 TDT
 MAG  28.912  0.150
! Non-gravitational parameters: model used, number of model parameters, dimension
 LSP   0  0    6
! PERIHELION   9.4769781970565037E-01
! APHELION   1.0592282797549548E+00
! ANODE  -7.6448013727682821E-03
! DNODE   6.8954825684352959E-03
! MOID   4.1049889827813654E-03
! PERIOD   3.6715589424322116E+02
! PHA F
! VINFTY     1.9790574387293
! U_PAR 0.0
! ORB_TYPE Apollo
! RMS    3.89760E-09   2.57702E-08   1.77725E-06   5.34366E-06   8.72074E-06   5.85973E-06
 COV   1.519129980998911E-17 -8.471537748197124E-17  2.595871218316935E-15
 COV  -5.655691079700522E-15  1.625260772823599E-14 -1.203599919146829E-15
 COV   6.641051040129131E-16 -3.363349744876471E-14 -5.432242543230012E-15
 COV  -7.946995516538078E-14  5.565381701849739E-15  3.158601412797836E-12
 COV   5.081410027493530E-12  2.539491679271853E-12 -3.332371947287374E-12
 COV   2.855473773614132E-11 -2.842706951472210E-11  8.116968993979477E-13
 COV   7.605123274361085E-11 -3.701327487184441E-11  3.433648556822843E-11
 COR   1.000000000000000E+00 -8.434248136843299E-01  3.747470848219919E-01
 COR  -2.715495731612310E-01  4.781591346802004E-01 -5.269953236844290E-02
 COR   1.000000000000000E+00 -7.343552583877248E-01 -3.944769717042980E-02
 COR  -3.536156113698302E-01  3.685518756945422E-02  1.000000000000000E+00
 COR   5.350541535577500E-01  1.638499271013195E-01 -3.199839065563303E-01
 COR   9.999999999999998E-01 -6.100141015686718E-01  2.592249970543337E-02
 COR   1.000000000000000E+00 -7.243133042687172E-01  9.999999999999999E-01
